[{"OBJECT_NAME":"TRANSPORTER-11 OBJECT A","OBJECT_ID":"2024-149A","EPOCH":"2026-03-09T17:54:54.302112","MEAN_MOTION":15.31141332,"ECCENTRICITY":0.00031096,"INCLINATION":97.378,"RA_OF_ASC_NODE":149.0949,"ARG_OF_PERICENTER":191.001,"MEAN_ANOMALY":169.1164,"EPHEMERIS_TYPE":0,"CLASSIFICATION_TYPE":"U","NORAD_CAT_ID":60468,"ELEMENT_SET_NO":999,"REV_AT_EPOCH":8683,"BSTAR":0.00036053677,"MEAN_MOTION_DOT":0.00010774,"MEAN_MOTION_DDOT":0},{"OBJECT_NAME":"STARLINK-33723","OBJECT_ID":"2025-076AA","EPOCH":"2026-03-09T23:03:09.572544","MEAN_MOTION":15.27600351,"ECCENTRICITY":0.00011069,"INCLINATION":43.0023,"RA_OF_ASC_NODE":320.0024,"ARG_OF_PERICENTER":271.7288,"MEAN_ANOMALY":88.3437,"EPHEMERIS_TYPE":0,"CLASSIFICATION_TYPE":"U","NORAD_CAT_ID":63593,"ELEMENT_SET_NO":999,"REV_AT_EPOCH":5187,"BSTAR":0.0011007175,"MEAN_MOTION_DOT":0.0003017,"MEAN_MOTION_DDOT":0}]
